{
  "type": "FeatureCollection",
  "features": [
    {
      "type": "Feature",
      "properties": {
        "norad_id": 31053,
        "name": "FENGYUN 1C DEB",
        "group": "fengyun-1c-debris",
        "lat": 72.63926537828364,
        "lon": 76.94005711978302,
        "alt_km": 768.3505720011954,
        "timestamp": "2025-12-09T21:34:11.688233+00:00",
        "meta_object_name": "FENGYUN 1C DEB",
        "meta_object_id": "1999-025BEX",
        "meta_epoch": "2025-12-09T07:15:11.826144",
        "meta_mean_motion": 13.75848728,
        "meta_eccentricity": 0.0309376,
        "meta_inclination": 98.7939,
        "meta_ra_of_asc_node": 106.0672,
        "meta_arg_of_pericenter": 104.1614,
        "meta_mean_anomaly": 259.4116,
        "meta_ephemeris_type": 0,
        "meta_classification_type": "U",
        "meta_norad_cat_id": 31053,
        "meta_element_set_no": 999,
        "meta_rev_at_epoch": 93429,
        "meta_bstar": 0.0025997,
        "meta_mean_motion_dot": 3.538e-05,
        "meta_mean_motion_ddot": 0,
        "tle_line1": "1 31053U 99025BEX 25343.30222021  .00003538  00000+0  25997-2 0  9998",
        "tle_line2": "2 31053  98.7939 106.0672 0309376 104.1614 259.4116 13.75848728934294"
      },
      "geometry": {
        "type": "Point",
        "coordinates": [
          76.94005711978302,
          72.63926537828364
        ]
      }
    },
    {
      "type": "Feature",
      "properties": {
        "norad_id": 31054,
        "name": "FENGYUN 1C DEB",
        "group": "fengyun-1c-debris",
        "lat": -27.732990946239674,
        "lon": 172.40457788980174,
        "alt_km": 856.3713529422484,
        "timestamp": "2025-12-09T21:34:11.688243+00:00",
        "meta_object_name": "FENGYUN 1C DEB",
        "meta_object_id": "1999-025BEY",
        "meta_epoch": "2025-12-09T12:48:10.118016",
        "meta_mean_motion": 14.1216719,
        "meta_eccentricity": 0.00105896,
        "meta_inclination": 98.6904,
        "meta_ra_of_asc_node": 356.6627,
        "meta_arg_of_pericenter": 128.8864,
        "meta_mean_anomaly": 22.9164,
        "meta_ephemeris_type": 0,
        "meta_classification_type": "U",
        "meta_norad_cat_id": 31054,
        "meta_element_set_no": 999,
        "meta_rev_at_epoch": 96718,
        "meta_bstar": 0.00024522794,
        "meta_mean_motion_dot": 4.08e-06,
        "meta_mean_motion_ddot": 0,
        "tle_line1": "1 31054U 99025BEY 25343.53345044  .00000408  00000+0  24523-3 0  9993",
        "tle_line2": "2 31054  98.6904 356.6627 0010589 128.8864  22.9164 14.12167190967183"
      },
      "geometry": {
        "type": "Point",
        "coordinates": [
          172.40457788980174,
          -27.732990946239674
        ]
      }
    },
    {
      "type": "Feature",
      "properties": {
        "norad_id": 31055,
        "name": "FENGYUN 1C DEB",
        "group": "fengyun-1c-debris",
        "lat": -10.72776010144573,
        "lon": 16.85600971115603,
        "alt_km": 855.9906379585145,
        "timestamp": "2025-12-09T21:34:11.688253+00:00",
        "meta_object_name": "FENGYUN 1C DEB",
        "meta_object_id": "1999-025BEZ",
        "meta_epoch": "2025-12-09T01:27:05.544576",
        "meta_mean_motion": 14.10369506,
        "meta_eccentricity": 0.00239758,
        "meta_inclination": 98.7603,
        "meta_ra_of_asc_node": 14.3654,
        "meta_arg_of_pericenter": 282.792,
        "meta_mean_anomaly": 132.4332,
        "meta_ephemeris_type": 0,
        "meta_classification_type": "U",
        "meta_norad_cat_id": 31055,
        "meta_element_set_no": 999,
        "meta_rev_at_epoch": 96070,
        "meta_bstar": 0.00042986541,
        "meta_mean_motion_dot": 7.22e-06,
        "meta_mean_motion_ddot": 0,
        "tle_line1": "1 31055U 99025BEZ 25343.06048084  .00000722  00000+0  42987-3 0  9999",
        "tle_line2": "2 31055  98.7603  14.3654 0023975 282.7920 132.4332 14.10369506960703"
      },
      "geometry": {
        "type": "Point",
        "coordinates": [
          16.85600971115603,
          -10.72776010144573
        ]
      }
    },
    {
      "type": "Feature",
      "properties": {
        "norad_id": 31056,
        "name": "FENGYUN 1C DEB",
        "group": "fengyun-1c-debris",
        "lat": -81.17783402013153,
        "lon": 45.93526786843249,
        "alt_km": 848.6018700937875,
        "timestamp": "2025-12-09T21:34:11.688263+00:00",
        "meta_object_name": "FENGYUN 1C DEB",
        "meta_object_id": "1999-025BFA",
        "meta_epoch": "2025-12-09T10:48:53.631936",
        "meta_mean_motion": 14.1429842,
        "meta_eccentricity": 0.00257375,
        "meta_inclination": 98.6683,
        "meta_ra_of_asc_node": 326.1083,
        "meta_arg_of_pericenter": 352.4279,
        "meta_mean_anomaly": 159.1427,
        "meta_ephemeris_type": 0,
        "meta_classification_type": "U",
        "meta_norad_cat_id": 31056,
        "meta_element_set_no": 999,
        "meta_rev_at_epoch": 96771,
        "meta_bstar": 0.00064514288,
        "meta_mean_motion_dot": 1.194e-05,
        "meta_mean_motion_ddot": 0,
        "tle_line1": "1 31056U 99025BFA 25343.45062074  .00001194  00000+0  64514-3 0  9992",
        "tle_line2": "2 31056  98.6683 326.1083 0025737 352.4279 159.1427 14.14298420967710"
      },
      "geometry": {
        "type": "Point",
        "coordinates": [
          45.93526786843249,
          -81.17783402013153
        ]
      }
    },
    {
      "type": "Feature",
      "properties": {
        "norad_id": 31057,
        "name": "FENGYUN 1C DEB",
        "group": "fengyun-1c-debris",
        "lat": -35.92984629462582,
        "lon": -163.89358865048803,
        "alt_km": 568.1831332911479,
        "timestamp": "2025-12-09T21:34:11.688274+00:00",
        "meta_object_name": "FENGYUN 1C DEB",
        "meta_object_id": "1999-025BFB",
        "meta_epoch": "2025-12-07T08:31:09.738912",
        "meta_mean_motion": 14.79274467,
        "meta_eccentricity": 0.0137797,
        "meta_inclination": 99.2572,
        "meta_ra_of_asc_node": 19.9678,
        "meta_arg_of_pericenter": 268.7892,
        "meta_mean_anomaly": 89.7526,
        "meta_ephemeris_type": 0,
        "meta_classification_type": "U",
        "meta_norad_cat_id": 31057,
        "meta_element_set_no": 999,
        "meta_rev_at_epoch": 61873,
        "meta_bstar": 0.0014079461,
        "meta_mean_motion_dot": 0.00012236,
        "meta_mean_motion_ddot": 0,
        "tle_line1": "1 31057U 99025BFB 25341.35497383  .00012236  00000+0  14079-2 0  9994",
        "tle_line2": "2 31057  99.2572  19.9678 0137797 268.7892  89.7526 14.79274467618731"
      },
      "geometry": {
        "type": "Point",
        "coordinates": [
          -163.89358865048803,
          -35.92984629462582
        ]
      }
    },
    {
      "type": "Feature",
      "properties": {
        "norad_id": 31058,
        "name": "FENGYUN 1C DEB",
        "group": "fengyun-1c-debris",
        "lat": 51.95108803115505,
        "lon": -79.78823963051352,
        "alt_km": 604.108544834362,
        "timestamp": "2025-12-09T21:34:11.688284+00:00",
        "meta_object_name": "FENGYUN 1C DEB",
        "meta_object_id": "1999-025BFC",
        "meta_epoch": "2025-12-08T14:25:24.311712",
        "meta_mean_motion": 14.76218072,
        "meta_eccentricity": 0.0095083,
        "meta_inclination": 99.5657,
        "meta_ra_of_asc_node": 291.1199,
        "meta_arg_of_pericenter": 118.6638,
        "meta_mean_anomaly": 242.4167,
        "meta_ephemeris_type": 0,
        "meta_classification_type": "U",
        "meta_norad_cat_id": 31058,
        "meta_element_set_no": 999,
        "meta_rev_at_epoch": 99488,
        "meta_bstar": 0.0015712,
        "meta_mean_motion_dot": 0.00011654,
        "meta_mean_motion_ddot": 0,
        "tle_line1": "1 31058U 99025BFC 25342.60097583  .00011654  00000+0  15712-2 0  9990",
        "tle_line2": "2 31058  99.5657 291.1199 0095083 118.6638 242.4167 14.76218072994882"
      },
      "geometry": {
        "type": "Point",
        "coordinates": [
          -79.78823963051352,
          51.95108803115505
        ]
      }
    },
    {
      "type": "Feature",
      "properties": {
        "norad_id": 31062,
        "name": "FENGYUN 1C DEB",
        "group": "fengyun-1c-debris",
        "lat": 9.745221185646033,
        "lon": -11.998019062104202,
        "alt_km": 1095.2540461094795,
        "timestamp": "2025-12-09T21:34:11.688294+00:00",
        "meta_object_name": "FENGYUN 1C DEB",
        "meta_object_id": "1999-025BFG",
        "meta_epoch": "2025-12-08T18:38:34.024416",
        "meta_mean_motion": 13.75688586,
        "meta_eccentricity": 0.01717436,
        "meta_inclination": 98.9968,
        "meta_ra_of_asc_node": 165.3833,
        "meta_arg_of_pericenter": 328.4179,
        "meta_mean_anomaly": 48.9055,
        "meta_ephemeris_type": 0,
        "meta_classification_type": "U",
        "meta_norad_cat_id": 31062,
        "meta_element_set_no": 999,
        "meta_rev_at_epoch": 94179,
        "meta_bstar": 0.00045821902,
        "meta_mean_motion_dot": 4.51e-06,
        "meta_mean_motion_ddot": 0,
        "tle_line1": "1 31062U 99025BFG 25342.77678269  .00000451  00000+0  45822-3 0  9998",
        "tle_line2": "2 31062  98.9968 165.3833 0171743 328.4179  48.9055 13.75688586941797"
      },
      "geometry": {
        "type": "Point",
        "coordinates": [
          -11.998019062104202,
          9.745221185646033
        ]
      }
    }
  ]
}